EUTELSAT QUANTUM        
1 49056U 21069B   25216.76888187  .00000134  00000+0  00000+0 0  9997
2 49056   0.0195 337.4954 0002153 164.8843 135.6987  1.00274844 14757
EUTELSAT KONNECT VHTS   
1 53765U 22110A   25217.10183671  .00000025  00000+0  00000+0 0  9991
2 53765   0.0559  98.5858 0002848  27.6647 227.0398  1.00269198 10619
EUTELSAT HOTBIRD 13F    
1 54048U 22134A   25216.04823229  .00000097  00000+0  00000+0 0  9993
2 54048   0.0652 277.5496 0001925  95.7793 329.9172  1.00273508 10193
EUTELSAT HOTBIRD 13G    
1 54225U 22146A   25215.94350495  .00000097  00000+0  00000+0 0  9991
2 54225   0.0575 247.0209 0002259 284.6660 133.7356  1.00274010  4288
EUTELSAT 10B            
1 54259U 22157A   25216.92128343  .00000077  00000+0  00000+0 0  9992
2 54259   0.0494  95.5380 0001610  24.9737 174.8728  1.00271902  9844
EUTELSAT 36D            
1 59346U 24059A   25217.12345565  .00000164  00000+0  00000+0 0  9994
2 59346   0.0259  87.0712 0000426  35.8162 271.3306  1.00270505  4979
